{
  "norad_id": 69021,
  "name": "CAS500-2 RIDESHARE OBJECT AT",
  "history": [
    {
      "epoch": "2026-05-09T14:08:40.960608Z",
      "apogee_km": 511.8430897908356,
      "perigee_km": 502.83275730587957,
      "latitude_deg": -3.8583067396480384e-05,
      "longitude_deg": -51.48173302834512,
      "height_km": 512.2484689956461,
      "semi_major_axis_km": 6885.474923548357,
      "eccentricity": 0.0006543,
      "inclination_deg": 97.406,
      "raan_deg": 28.0937,
      "arg_perigee_deg": 113.9915,
      "mean_anomaly_deg": 246.2005,
      "mean_motion_rev_day": 15.1950422
    }
  ]
}