CAS500-2 RIDESHARE OBJE*
1 69021U 26100AT  26129.58936297  .00005694  00000+0  27122-3 0  9996
2 69021  97.4060  28.0937 0006543 113.9915 246.2005 15.19504220   943
